start=new Date('2022-03-09T00:00:00.000Z').valueOf();
sats=[{"EPHEMERIS_TYPE":"0","COUNTRY_CODE":"US","LAUNCH_DATE":"2021-02-16","SEMIMAJOR_AXIS":"6925.397","EPOCH":"2022-03-08T17:15:26.060832","ELEMENT_SET_NO":"999","OBJECT_ID":"2021-012AZ","REV_AT_EPOCH":"5961","PERIAPSIS":"546.145","DECAY_DATE":null,"APOAPSIS":"548.379","OBJECT_NAME":"STARLINK-2058","FILE":"3351330","INCLINATION":"53.0539","RCS_SIZE":"LARGE","TIME_SYSTEM":"UTC","RA_OF_ASC_NODE":"154.6688","REF_FRAME":"TEME","TLE_LINE1":"1 47667U 21012AZ  22067.71905163 -.00002332  00000-0 -13774-3 0  9992","OBJECT_TYPE":"PAYLOAD","SITE":"AFETR","TLE_LINE2":"2 47667  53.0539 154.6688 0001613  59.1648 300.9499 15.06384112 59615","CENTER_NAME":"EARTH","MEAN_MOTION_DOT":"-0.00002332","NORAD_CAT_ID":"47667","BSTAR":"-0.00013774000000","CLASSIFICATION_TYPE":"U","MEAN_MOTION_DDOT":"0.0000000000000","MEAN_ELEMENT_THEORY":"SGP4","ARG_OF_PERICENTER":"59.1648","ECCENTRICITY":"0.00016130","GP_ID":"198272578","MEAN_MOTION":"15.06384112","PERIOD":"95.593","MEAN_ANOMALY":"300.9499"},{"MEAN_ANOMALY":"303.3773","PERIOD":"95.593","MEAN_MOTION":"15.06392845","ECCENTRICITY":"0.00018410","GP_ID":"198272828","ARG_OF_PERICENTER":"56.7392","MEAN_ELEMENT_THEORY":"SGP4","MEAN_MOTION_DDOT":"0.0000000000000","CLASSIFICATION_TYPE":"U","BSTAR":"0.00018072000000","NORAD_CAT_ID":"47668","MEAN_MOTION_DOT":"0.00002411","CENTER_NAME":"EARTH","TLE_LINE2":"2 47668  53.0535 133.8752 0001841  56.7392 303.3773 15.06392845 59945","SITE":"AFETR","OBJECT_TYPE":"PAYLOAD","TLE_LINE1":"1 47668U 21012BA  22067.89412590  .00002411  00000-0  18072-3 0  9991","REF_FRAME":"TEME","RA_OF_ASC_NODE":"133.8752","RCS_SIZE":"LARGE","TIME_SYSTEM":"UTC","INCLINATION":"53.0535","FILE":"3351330","OBJECT_NAME":"STARLINK-2059","APOAPSIS":"548.510","DECAY_DATE":null,"PERIAPSIS":"545.961","REV_AT_EPOCH":"5994","OBJECT_ID":"2021-012BA","ELEMENT_SET_NO":"999","EPOCH":"2022-03-08T21:27:32.477760","SEMIMAJOR_AXIS":"6925.370","LAUNCH_DATE":"2021-02-16","COUNTRY_CODE":"US","EPHEMERIS_TYPE":"0"},{"OBJECT_ID":"2021-012BB","ELEMENT_SET_NO":"999","EPOCH":"2022-03-08T22:00:00.999936","SEMIMAJOR_AXIS":"6925.425","LAUNCH_DATE":"2021-02-16","COUNTRY_CODE":"US","EPHEMERIS_TYPE":"0","OBJECT_NAME":"STARLINK-2060","APOAPSIS":"548.649","DECAY_DATE":null,"REV_AT_EPOCH":"6046","PERIAPSIS":"545.932","OBJECT_TYPE":"PAYLOAD","SITE":"AFETR","TLE_LINE1":"1 47669U 21012BB  22067.91667824  .00040844  00000-0  27469-2 0  9998","REF_FRAME":"TEME","RA_OF_ASC_NODE":"58.7725","TIME_SYSTEM":"UTC","RCS_SIZE":"LARGE","INCLINATION":"53.0550","FILE":"3351041","PERIOD":"95.594","MEAN_ANOMALY":"69.1371","MEAN_MOTION":"15.06374900","ECCENTRICITY":"0.00019610","GP_ID":"198245622","ARG_OF_PERICENTER":"50.9237","MEAN_ELEMENT_THEORY":"SGP4","MEAN_MOTION_DDOT":"0.0000000000000","BSTAR":"0.00274690000000","CLASSIFICATION_TYPE":"U","NORAD_CAT_ID":"47669","MEAN_MOTION_DOT":"0.00040844","CENTER_NAME":"EARTH","TLE_LINE2":"2 47669  53.0550  58.7725 0001961  50.9237  69.1371 15.06374900 60467"},{"REF_FRAME":"TEME","TLE_LINE1":"1 47670U 21012BC  22067.90887028 -.00000500  00000-0 -14633-4 0  9997","OBJECT_TYPE":"PAYLOAD","SITE":"AFETR","INCLINATION":"53.0545","FILE":"3351330","RA_OF_ASC_NODE":"133.7965","TIME_SYSTEM":"UTC","RCS_SIZE":"LARGE","ARG_OF_PERICENTER":"33.8941","MEAN_ELEMENT_THEORY":"SGP4","MEAN_MOTION":"15.06395627","GP_ID":"198274331","ECCENTRICITY":"0.00022880","MEAN_ANOMALY":"326.2194","PERIOD":"95.592","NORAD_CAT_ID":"47670","MEAN_MOTION_DOT":"-0.00000500","TLE_LINE2":"2 47670  53.0545 133.7965 0002288  33.8941 326.2194 15.06395627 59937","CENTER_NAME":"EARTH","BSTAR":"-0.00001463300000","CLASSIFICATION_TYPE":"U","MEAN_MOTION_DDOT":"0.0000000000000","LAUNCH_DATE":"2021-02-16","EPOCH":"2022-03-08T21:48:46.392192","SEMIMAJOR_AXIS":"6925.362","ELEMENT_SET_NO":"999","OBJECT_ID":"2021-012BC","EPHEMERIS_TYPE":"0","COUNTRY_CODE":"US","APOAPSIS":"548.811","DECAY_DATE":null,"OBJECT_NAME":"STARLINK-2062","PERIAPSIS":"545.642","REV_AT_EPOCH":"5993"},{"SEMIMAJOR_AXIS":"6925.421","EPOCH":"2022-03-08T21:22:15.612672","LAUNCH_DATE":"2021-02-16","OBJECT_ID":"2021-012BD","ELEMENT_SET_NO":"999","EPHEMERIS_TYPE":"0","COUNTRY_CODE":"US","DECAY_DATE":null,"APOAPSIS":"548.310","OBJECT_NAME":"STARLINK-2064","PERIAPSIS":"546.261","REV_AT_EPOCH":"5994","TLE_LINE1":"1 47671U 21012BD  22067.89045848 -.00001851  00000-0 -10548-3 0  9992","REF_FRAME":"TEME","OBJECT_TYPE":"PAYLOAD","SITE":"AFETR","FILE":"3351330","INCLINATION":"53.0529","RCS_SIZE":"LARGE","TIME_SYSTEM":"UTC","RA_OF_ASC_NODE":"133.8957","GP_ID":"198273079","ECCENTRICITY":"0.00014790","MEAN_MOTION":"15.06376472","MEAN_ELEMENT_THEORY":"SGP4","ARG_OF_PERICENTER":"68.7580","MEAN_ANOMALY":"291.3567","PERIOD":"95.594","BSTAR":"-0.00010548000000","CLASSIFICATION_TYPE":"U","TLE_LINE2":"2 47671  53.0529 133.8957 0001479  68.7580 291.3567 15.06376472 59943","CENTER_NAME":"EARTH","MEAN_MOTION_DOT":"-0.00001851","NORAD_CAT_ID":"47671","MEAN_MOTION_DDOT":"0.0000000000000"},{"REV_AT_EPOCH":"6005","PERIAPSIS":"546.240","OBJECT_NAME":"STARLINK-2065","DECAY_DATE":null,"APOAPSIS":"548.228","COUNTRY_CODE":"US","EPHEMERIS_TYPE":"0","ELEMENT_SET_NO":"999","OBJECT_ID":"2021-012BE","LAUNCH_DATE":"2021-02-16","SEMIMAJOR_AXIS":"6925.369","EPOCH":"2022-03-08T20:51:42.963264","MEAN_MOTION_DDOT":"0.0000000000000","CENTER_NAME":"EARTH","TLE_LINE2":"2 47672  53.0548 123.9798 0001435  78.1618 281.9532 15.06393255 60056","MEAN_MOTION_DOT":"-0.00001014","NORAD_CAT_ID":"47672","BSTAR":"-0.00004916600000","CLASSIFICATION_TYPE":"U","PERIOD":"95.593","MEAN_ANOMALY":"281.9532","MEAN_ELEMENT_THEORY":"SGP4","ARG_OF_PERICENTER":"78.1618","ECCENTRICITY":"0.00014350","GP_ID":"198273329","MEAN_MOTION":"15.06393255","RCS_SIZE":"LARGE","TIME_SYSTEM":"UTC","RA_OF_ASC_NODE":"123.9798","FILE":"3351330","INCLINATION":"53.0548","SITE":"AFETR","OBJECT_TYPE":"PAYLOAD","REF_FRAME":"TEME","TLE_LINE1":"1 47672U 21012BE  22067.86924726 -.00001014  00000-0 -49166-4 0  9991"},{"COUNTRY_CODE":"US","EPHEMERIS_TYPE":"0","OBJECT_ID":"2021-012BF","ELEMENT_SET_NO":"999","SEMIMAJOR_AXIS":"6925.403","EPOCH":"2022-03-08T21:54:06.003072","LAUNCH_DATE":"2021-02-16","REV_AT_EPOCH":"5993","PERIAPSIS":"546.130","OBJECT_NAME":"STARLINK-2066","DECAY_DATE":null,"APOAPSIS":"548.405","RCS_SIZE":"LARGE","TIME_SYSTEM":"UTC","RA_OF_ASC_NODE":"133.7932","FILE":"3351330","INCLINATION":"53.0555","OBJECT_TYPE":"PAYLOAD","SITE":"AFETR","TLE_LINE1":"1 47673U 21012BF  22067.91256948 -.00002444  00000-0 -14528-3 0  9993","REF_FRAME":"TEME","MEAN_MOTION_DDOT":"0.0000000000000","BSTAR":"-0.00014528000000","CLASSIFICATION_TYPE":"U","TLE_LINE2":"2 47673  53.0555 133.7932 0001642  53.9924 306.1217 15.06382389 59936","CENTER_NAME":"EARTH","NORAD_CAT_ID":"47673","MEAN_MOTION_DOT":"-0.00002444","MEAN_ANOMALY":"306.1217","PERIOD":"95.593","GP_ID":"198273580","ECCENTRICITY":"0.00016420","MEAN_MOTION":"15.06382389","MEAN_ELEMENT_THEORY":"SGP4","ARG_OF_PERICENTER":"53.9924"},{"RA_OF_ASC_NODE":"134.9036","TIME_SYSTEM":"UTC","RCS_SIZE":"LARGE","INCLINATION":"53.0534","FILE":"3351330","SITE":"AFETR","OBJECT_TYPE":"PAYLOAD","REF_FRAME":"TEME","TLE_LINE1":"1 47674U 21012BG  22067.66191736 -.00002938  00000-0 -17844-3 0  9991","MEAN_MOTION_DDOT":"0.0000000000000","NORAD_CAT_ID":"47674","MEAN_MOTION_DOT":"-0.00002938","TLE_LINE2":"2 47674  53.0534 134.9036 0001600  65.5421 294.5734 15.06390665 59904","CENTER_NAME":"EARTH","BSTAR":"-0.00017844000000","CLASSIFICATION_TYPE":"U","MEAN_ANOMALY":"294.5734","PERIOD":"95.593","ARG_OF_PERICENTER":"65.5421","MEAN_ELEMENT_THEORY":"SGP4","MEAN_MOTION":"15.06390665","GP_ID":"198273831","ECCENTRICITY":"0.00016000","COUNTRY_CODE":"US","EPHEMERIS_TYPE":"0","ELEMENT_SET_NO":"999","OBJECT_ID":"2021-012BG","LAUNCH_DATE":"2021-02-16","EPOCH":"2022-03-08T15:53:09.659904","SEMIMAJOR_AXIS":"6925.377","PERIAPSIS":"546.134","REV_AT_EPOCH":"5990","OBJECT_NAME":"STARLINK-2067","APOAPSIS":"548.350","DECAY_DATE":null},{"DECAY_DATE":null,"APOAPSIS":"548.176","OBJECT_NAME":"STARLINK-2078","PERIAPSIS":"546.302","REV_AT_EPOCH":"5994","SEMIMAJOR_AXIS":"6925.374","EPOCH":"2022-03-08T22:04:41.853504","LAUNCH_DATE":"2021-02-16","OBJECT_ID":"2021-012BH","ELEMENT_SET_NO":"999","EPHEMERIS_TYPE":"0","COUNTRY_CODE":"US","ECCENTRICITY":"0.00013530","GP_ID":"198272579","MEAN_MOTION":"15.06391557","MEAN_ELEMENT_THEORY":"SGP4","ARG_OF_PERICENTER":"62.6613","PERIOD":"95.593","MEAN_ANOMALY":"297.4514","BSTAR":"-0.00004431300000","CLASSIFICATION_TYPE":"U","CENTER_NAME":"EARTH","TLE_LINE2":"2 47675  53.0555 133.7621 0001353  62.6613 297.4514 15.06391557 59944","MEAN_MOTION_DOT":"-0.00000941","NORAD_CAT_ID":"47675","MEAN_MOTION_DDOT":"0.0000000000000","TLE_LINE1":"1 47675U 21012BH  22067.91992886 -.00000941  00000-0 -44313-4 0  9999","REF_FRAME":"TEME","SITE":"AFETR","OBJECT_TYPE":"PAYLOAD","FILE":"3351330","INCLINATION":"53.0555","TIME_SYSTEM":"UTC","RCS_SIZE":"LARGE","RA_OF_ASC_NODE":"133.7621"},{"TIME_SYSTEM":"UTC","RCS_SIZE":"LARGE","RA_OF_ASC_NODE":"23.7691","FILE":"3351079","INCLINATION":"53.0548","OBJECT_TYPE":"PAYLOAD","SITE":"AFETR","REF_FRAME":"TEME","TLE_LINE1":"1 47676U 21012BJ  22067.91667824  .00302841  00000-0  19611-1 0  9993","MEAN_MOTION_DDOT":"0.0000000000000","TLE_LINE2":"2 47676  53.0548  23.7691 0001986  57.4907 310.0422 15.06175737 60966","CENTER_NAME":"EARTH","NORAD_CAT_ID":"47676","MEAN_MOTION_DOT":"0.00302841","BSTAR":"0.01961100000000","CLASSIFICATION_TYPE":"U","PERIOD":"95.606","MEAN_ANOMALY":"310.0422","MEAN_ELEMENT_THEORY":"SGP4","ARG_OF_PERICENTER":"57.4907","GP_ID":"198246095","ECCENTRICITY":"0.00019860","MEAN_MOTION":"15.06175737","COUNTRY_CODE":"US","EPHEMERIS_TYPE":"0","ELEMENT_SET_NO":"999","OBJECT_ID":"2021-012BJ","LAUNCH_DATE":"2021-02-16","SEMIMAJOR_AXIS":"6926.036","EPOCH":"2022-03-08T22:00:00.999936","PERIAPSIS":"546.525","REV_AT_EPOCH":"6096","OBJECT_NAME":"STARLINK-2083","DECAY_DATE":null,"APOAPSIS":"549.276"}];
